KUIPER-00053            
1 64513U 25134P   25224.34256065  .00042143  00000+0  11516-2 0  9999
2 64513  51.8772  90.0996 0001777 271.2758  88.8025 15.36973813  8452
KUIPER-00054            
1 64514U 25134Q   25224.34926692  .00027068  00000+0  75026-3 0  9996
2 64514  51.8765  90.1408 0002659 278.7659  81.3026 15.36749690  8853
KUIPER-00055            
1 64515U 25134R   25223.93817163  .00028977  00000+0  78628-3 0  9994
2 64515  51.8769  91.8929 0000748 207.1968 152.8979 15.37374276  8856
KUIPER-00056            
1 64516U 25134S   25224.35666593  .00028421  00000+0  79320-3 0  9995
2 64516  51.8735  90.1827 0003185 278.2414  81.8211 15.36507935  8457
KUIPER-00057            
1 64517U 25134T   25224.32328870  .00035702  00000+0  10498-2 0  9996
2 64517  51.8695  90.6854 0006723 288.1874  71.8379 15.34740717  8559
KUIPER-00058            
1 64518U 25134U   25223.91192005  .00032340  00000+0  90857-3 0  9993
2 64518  51.8720  92.4437 0004659 284.9764  75.0706 15.36229029  8846
KUIPER-00059            
1 64519U 25134V   25224.33090063  .00031599  00000+0  85752-3 0  9995
2 64519  51.8771  90.0207 0001467 230.2246 129.8612 15.37326380  8444
KUIPER-00060            
1 64520U 25134W   25224.33752110  .00029935  00000+0  81694-3 0  9997
2 64520  51.8768  90.0672 0002005 234.0869 125.9932 15.37179181  8458
